OBJECT_NAME,OBJECT_ID,EPOCH,MEAN_MOTION,ECCENTRICITY,INCLINATION,RA_OF_ASC_NODE,ARG_OF_PERICENTER,MEAN_ANOMALY,EPHEMERIS_TYPE,CLASSIFICATION_TYPE,NORAD_CAT_ID,ELEMENT_SET_NO,REV_AT_EPOCH,BSTAR,MEAN_MOTION_DOT,MEAN_MOTION_DDOT
STARLINK-3072,2021-082Z,2024-01-20T11:29:11.791680,14.98328634,.0002627,70.0002,59.1247,265.0057,95.0802,0,U,49153,999,13145,-.50426E-5,-.153E-5,0
STARLINK-3068,2021-082AA,2024-01-20T13:41:42.790560,14.98329468,.0002614,70.0002,78.8815,259.2401,100.8463,0,U,49154,999,13084,.51011E-4,.516E-5,0
STARLINK-3060,2021-082AB,2024-01-20T12:59:19.248000,14.98330150,.0002716,69.9999,58.9687,273.0604,87.0244,0,U,49155,999,13133,.27291E-4,.233E-5,0
STARLINK-3085,2021-082AC,2024-01-20T12:29:16.816128,14.98322133,.0002851,69.9996,59.0113,272.2465,87.8368,0,U,49156,999,13133,-.10291E-3,-.132E-4,0
STARLINK-3051,2021-082AD,2024-01-20T13:35:42.199296,14.98329739,.0002727,69.9997,78.8944,265.9563,94.1284,0,U,49157,999,13086,.15797E-4,.96E-6,0
STARLINK-3083,2021-082AE,2024-01-20T14:00:12.479328,15.06784450,.0005984,69.9976,75.3320,318.4273,41.6434,0,U,49158,999,13095,.18429E-2,.27506E-3,0
STARLINK-3056,2021-082AF,2024-01-20T14:24:06.267456,14.98331372,.0002464,70.0009,98.8208,250.4713,109.6180,0,U,49159,999,13037,.21302E-4,.161E-5,0
STARLINK-3095,2021-082AG,2024-01-20T14:06:04.404672,14.98372141,.0002804,70.0010,98.8345,264.8959,95.1880,0,U,49160,999,13035,-.11382E-2,-.13662E-3,0
STARLINK-3080,2021-082AH,2024-01-20T14:12:05.511744,14.98326600,.0002274,70.0013,98.8204,253.0897,107.0013,0,U,49161,999,13035,.10256E-4,.29E-6,0
STARLINK-3082,2021-082AJ,2024-01-20T14:00:04.133088,14.98332656,.000345,69.9984,98.8467,279.7697,80.3072,0,U,49162,999,13043,.1198E-3,.1337E-4,0
STARLINK-3088,2021-082AK,2024-01-20T13:23:41.265600,14.98329250,.0002618,70.0004,78.9242,258.4131,101.6735,0,U,49163,999,13092,-.81264E-5,-.19E-5,0
STARLINK-3106,2021-082AL,2024-01-20T13:11:40.314624,14.98328244,.0002549,70.0006,78.9521,255.1416,104.9461,0,U,49164,999,13093,-.97496E-5,-.209E-5,0
STARLINK-3052,2021-082AM,2024-01-20T15:30:25.824672,14.98331659,.0002545,70.0012,98.6951,268.2996,91.7871,0,U,49165,999,13049,.33765E-4,.31E-5,0
STARLINK-3089,2021-082AN,2024-01-20T13:17:40.649280,14.98316260,.0003201,70.0002,78.9376,265.7747,94.3047,0,U,49166,999,13096,.21784E-3,.2506E-4,0
STARLINK-3054,2021-082AP,2024-01-20T15:24:11.963232,14.98307292,.0002561,70.0009,98.7074,272.0021,88.0844,0,U,49167,999,13049,.38089E-3,.4452E-4,0
STARLINK-3101,2021-082AQ,2024-01-20T12:53:39.722784,14.98323399,.0002807,70.0000,78.9658,264.3720,95.7119,0,U,49168,999,13096,.93912E-4,.1028E-4,0
STARLINK-3046,2021-082AR,2024-01-20T13:05:39.897888,14.98329368,.0002522,70.0006,78.9664,262.1843,97.9030,0,U,49169,999,13097,-.17471E-5,-.114E-5,0
STARLINK-3074,2021-082AS,2024-01-20T14:48:08.248896,14.98329957,.0002792,70.0003,98.7755,266.1683,93.9157,0,U,49170,999,12928,.72534E-6,-.84E-6,0
STARLINK-3107,2021-082AT,2024-01-20T13:42:02.938176,14.98331568,.0002621,70.0006,98.9018,268.8606,91.2253,0,U,49171,999,13043,-.29755E-4,-.448E-5,0
STARLINK-3091,2021-082AU,2024-01-20T13:53:43.769184,14.98329674,.0002759,70.0000,78.8664,261.6166,98.4681,0,U,49172,999,12976,-.12133E-5,-.107E-5,0
STARLINK-3045,2021-082AV,2024-01-20T12:47:38.143968,14.98330820,.0002682,70.0003,78.9804,262.5560,97.5294,0,U,49173,999,12976,.13928E-4,.73E-6,0
STARLINK-3047,2021-082AW,2024-01-20T13:18:00.524736,15.01902172,.000458,69.9986,77.3758,279.2449,80.8193,0,U,49174,999,13097,.82305E-3,.10701E-3,0
STARLINK-3087,2021-082AX,2024-01-20T13:29:41.981280,14.98327160,.0002571,70.0006,78.9221,253.9257,106.1620,0,U,49175,999,12976,-.45266E-5,-.147E-5,0
STARLINK-3069,2021-082AY,2024-01-20T11:35:12.197184,14.98334939,.0002963,69.9993,59.1106,266.4918,93.5902,0,U,49176,999,13024,.54538E-4,.558E-5,0
STARLINK-3103,2021-082AZ,2024-01-20T12:05:14.880480,14.98328585,.0002807,70.0002,59.0694,266.1362,93.9476,0,U,49177,999,13144,.83694E-4,.906E-5,0
STARLINK-3086,2021-082BA,2024-01-20T14:18:05.848128,14.98326665,.0002723,70.0011,98.8201,247.8973,112.1897,0,U,49178,999,13043,.86579E-4,.94E-5,0
STARLINK-3043,2021-082BB,2024-01-20T11:47:13.262208,14.98327963,.000257,70.0005,59.0838,263.1378,96.9489,0,U,49179,999,13024,-.28157E-5,-.127E-5,0
STARLINK-3050,2021-082BC,2024-01-20T12:59:39.299712,14.98327768,.0002402,70.0008,78.9640,260.5491,99.5396,0,U,49180,999,13093,-.38741E-4,-.555E-5,0
STARLINK-3059,2021-082BD,2024-01-20T15:30:11.672352,14.98333320,.0002462,70.0012,98.7078,262.1598,97.9282,0,U,49181,999,13045,.28756E-4,.25E-5,0
