STARLINK-3072           
1 49153U 21082Z   24020.47860870 -.00000153  00000+0 -50426-5 0  9995
2 49153  70.0002  59.1247 0002627 265.0057  95.0802 14.98328634131459
STARLINK-3068           
1 49154U 21082AA  24020.57063415  .00000516  00000+0  51011-4 0  9998
2 49154  70.0002  78.8815 0002614 259.2401 100.8463 14.98329468130849
STARLINK-3060           
1 49155U 21082AB  24020.54119500  .00000233  00000+0  27291-4 0  9992
2 49155  69.9999  58.9687 0002716 273.0604  87.0244 14.98330150131338
STARLINK-3085           
1 49156U 21082AC  24020.52033352 -.00001320  00000+0 -10291-3 0  9992
2 49156  69.9996  59.0113 0002851 272.2465  87.8368 14.98322133131335
STARLINK-3051           
1 49157U 21082AD  24020.56646064  .00000096  00000+0  15797-4 0  9991
2 49157  69.9997  78.8944 0002727 265.9563  94.1284 14.98329739130862
STARLINK-3083           
1 49158U 21082AE  24020.58347777  .00027506  00000+0  18429-2 0  9991
2 49158  69.9976  75.3320 0005984 318.4273  41.6434 15.06784450130959
STARLINK-3056           
1 49159U 21082AF  24020.60007254  .00000161  00000+0  21302-4 0  9992
2 49159  70.0009  98.8208 0002464 250.4713 109.6180 14.98331372130379
STARLINK-3095           
1 49160U 21082AG  24020.58755098 -.00013662  00000+0 -11382-2 0  9994
2 49160  70.0010  98.8345 0002804 264.8959  95.1880 14.98372141130357
STARLINK-3080           
1 49161U 21082AH  24020.59173046  .00000029  00000+0  10256-4 0  9995
2 49161  70.0013  98.8204 0002274 253.0897 107.0013 14.98326600130357
STARLINK-3082           
1 49162U 21082AJ  24020.58338117  .00001337  00000+0  11980-3 0  9994
2 49162  69.9984  98.8467 0003450 279.7697  80.3072 14.98332656130438
STARLINK-3088           
1 49163U 21082AK  24020.55811650 -.00000190  00000+0 -81264-5 0  9992
2 49163  70.0004  78.9242 0002618 258.4131 101.6735 14.98329250130920
STARLINK-3106           
1 49164U 21082AL  24020.54977216 -.00000209  00000+0 -97496-5 0  9998
2 49164  70.0006  78.9521 0002549 255.1416 104.9461 14.98328244130931
STARLINK-3052           
1 49165U 21082AM  24020.64613223  .00000310  00000+0  33765-4 0  9994
2 49165  70.0012  98.6951 0002545 268.2996  91.7871 14.98331659130492
STARLINK-3089           
1 49166U 21082AN  24020.55394270  .00002506  00000+0  21784-3 0  9999
2 49166  70.0002  78.9376 0003201 265.7747  94.3047 14.98316260130967
STARLINK-3054           
1 49167U 21082AP  24020.64180513  .00004452  00000+0  38089-3 0  9991
2 49167  70.0009  98.7074 0002561 272.0021  88.0844 14.98307292130492
STARLINK-3101           
1 49168U 21082AQ  24020.53726531  .00001028  00000+0  93912-4 0  9999
2 49168  70.0000  78.9658 0002807 264.3720  95.7119 14.98323399130963
STARLINK-3046           
1 49169U 21082AR  24020.54560067 -.00000114  00000+0 -17471-5 0  9995
2 49169  70.0006  78.9664 0002522 262.1843  97.9030 14.98329368130972
STARLINK-3074           
1 49170U 21082AS  24020.61676214 -.00000084  00000+0  72534-6 0  9994
2 49170  70.0003  98.7755 0002792 266.1683  93.9157 14.98329957129289
STARLINK-3107           
1 49171U 21082AT  24020.57086734 -.00000448  00000+0 -29755-4 0  9992
2 49171  70.0006  98.9018 0002621 268.8606  91.2253 14.98331568130430
STARLINK-3091           
1 49172U 21082AU  24020.57897881 -.00000107  00000+0 -12133-5 0  9991
2 49172  70.0000  78.8664 0002759 261.6166  98.4681 14.98329674129766
STARLINK-3045           
1 49173U 21082AV  24020.53308037  .00000073  00000+0  13928-4 0  9990
2 49173  70.0003  78.9804 0002682 262.5560  97.5294 14.98330820129765
STARLINK-3047           
1 49174U 21082AW  24020.55417274  .00010701  00000+0  82305-3 0  9990
2 49174  69.9986  77.3758 0004580 279.2449  80.8193 15.01902172130972
STARLINK-3087           
1 49175U 21082AX  24020.56229145 -.00000147  00000+0 -45266-5 0  9992
2 49175  70.0006  78.9221 0002571 253.9257 106.1620 14.98327160129760
STARLINK-3069           
1 49176U 21082AY  24020.48278006  .00000558  00000+0  54538-4 0  9999
2 49176  69.9993  59.1106 0002963 266.4918  93.5902 14.98334939130243
STARLINK-3103           
1 49177U 21082AZ  24020.50364445  .00000906  00000+0  83694-4 0  9998
2 49177  70.0002  59.0694 0002807 266.1362  93.9476 14.98328585131449
STARLINK-3086           
1 49178U 21082BA  24020.59590102  .00000940  00000+0  86579-4 0  9992
2 49178  70.0011  98.8201 0002723 247.8973 112.1897 14.98326665130432
STARLINK-3043           
1 49179U 21082BB  24020.49112572 -.00000127  00000+0 -28157-5 0  9991
2 49179  70.0005  59.0838 0002570 263.1378  96.9489 14.98327963130248
STARLINK-3050           
1 49180U 21082BC  24020.54142708 -.00000555  00000+0 -38741-4 0  9997
2 49180  70.0008  78.9640 0002402 260.5491  99.5396 14.98327768130930
STARLINK-3059           
1 49181U 21082BD  24020.64596843  .00000250  00000+0  28756-4 0  9997
2 49181  70.0012  98.7078 0002462 262.1598  97.9282 14.98333320130457
